H1 CPF 01  gfz 2022 08 02 12  7142 terrasarx 
H2 0702601  6201 31698    2022 08 02 12 59 42 2022 08 07 00 00 42   120 1 1  0 0 0
H9
10 0 59796  52542.000000  0   -3912952.980  -4084150.720  -3940599.422
10 0 59796  52662.000000  0   -3658810.771  -3546892.683  -4643161.403
10 0 59796  52782.000000  0   -3331156.968  -2953057.167  -5264420.224
10 0 59796  52902.000000  0   -2934860.752  -2314267.037  -5793593.618
10 0 59796  53022.000000  0   -2476175.371  -1642802.988  -6221522.583
10 0 59796  53142.000000  0   -1962635.039   -951366.057  -6540819.677
10 0 59796  53262.000000  0   -1402927.709   -252838.127  -6745984.698
10 0 59796  53382.000000  0    -806748.128    439954.117  -6833487.947
10 0 59796  53502.000000  0    -184632.840   1114468.542  -6801824.378
10 0 59796  53622.000000  0     452221.610   1758668.773  -6651536.345
10 0 59796  53742.000000  0    1092154.195   2361233.385  -6385207.219
10 0 59796  53862.000000  0    1723249.151   2911752.131  -6007422.549
10 0 59796  53982.000000  0    2333553.366   3400905.058  -5524698.947
10 0 59796  54102.000000  0    2911299.829   3820620.969  -4945381.723
10 0 59796  54222.000000  0    3445133.144   4164214.572  -4279512.589
10 0 59796  54342.000000  0    3924334.230   4426499.411  -3538666.353
10 0 59796  54462.000000  0    4339039.131   4603872.947  -2735757.890
10 0 59796  54582.000000  0    4680446.013   4694370.886  -1884821.148
10 0 59796  54702.000000  0    4941005.984   4697690.101  -1000765.907
10 0 59796  54822.000000  0    5114593.124   4615177.931    -99113.290
10 0 59796  54942.000000  0    5196646.207   4449787.831    804282.342
10 0 59796  55062.000000  0    5184281.283   4206003.458   1693518.751
10 0 59796  55182.000000  0    5076372.746   3889731.555   2552934.405
10 0 59796  55302.000000  0    4873597.453   3508165.100   3367394.029
10 0 59796  55422.000000  0    4578440.716   3069621.587   4122562.307
10 0 59796  55542.000000  0    4195166.102   2583360.573   4805160.179
10 0 59796  55662.000000  0    3729751.017   2059386.245   5403199.704
10 0 59796  55782.000000  0    3189785.472   1508239.141   5906194.045
10 0 59796  55902.000000  0    2584341.513    940781.146   6305336.281
10 0 59796  56022.000000  0    1923815.437    367979.637   6593646.220
10 0 59796  56142.000000  0    1219746.304   -199303.213   6766086.466
10 0 59796  56262.000000  0     484612.166   -750515.752   6819647.144
10 0 59796  56382.000000  0    -268392.378  -1275613.253   6753394.579
10 0 59796  56502.000000  0   -1025592.921  -1765240.450   6568485.943
10 0 59796  56622.000000  0   -1773082.749  -2210898.260   6268148.896
10 0 59796  56742.000000  0   -2496975.769  -2605090.696   5857628.377
10 0 59796  56862.000000  0   -3183664.191  -2941452.734   5344103.467
10 0 59796  56982.000000  0   -3820079.194  -3214856.945   4736568.582
10 0 59796  57102.000000  0   -4393944.306  -3421494.060   4045679.579
10 0 59796  57222.000000  0   -4894017.279  -3558926.910   3283570.380
10 0 59796  57342.000000  0   -5310316.324  -3626116.861   2463642.290
10 0 59796  57462.000000  0   -5634326.680  -3623422.778   1600327.710
10 0 59796  57582.000000  0   -5859180.208  -3552570.615    708830.902
10 0 59796  57702.000000  0   -5979803.415  -3416593.850   -195146.736
10 0 59796  57822.000000  0   -5993030.666  -3219747.428  -1095691.680
10 0 59796  57942.000000  0   -5897678.672  -2967396.298  -1976968.696
10 0 59796  58062.000000  0   -5694578.956  -2665881.253  -2823507.459
10 0 59796  58182.000000  0   -5386570.564  -2322367.364  -3620478.951
10 0 59796  58302.000000  0   -4978452.904  -1944678.373  -4353957.159
10 0 59796  58422.000000  0   -4476901.153  -1541121.643  -5011160.474
10 0 59796  58542.000000  0   -3890346.536  -1120307.831  -5580669.633
10 0 59796  58662.000000  0   -3228824.302   -690969.104  -6052617.534
10 0 59796  58782.000000  0   -2503794.512   -261780.629  -6418849.038
10 0 59796  58902.000000  0   -1727939.136    158811.055  -6673050.342
10 0 59796  59022.000000  0    -914938.989    562749.321  -6810846.211
10 0 59796  59142.000000  0     -79236.212    942517.069  -6829866.746
10 0 59796  59262.000000  0     764215.961   1291272.819  -6729783.022
10 0 59796  59382.000000  0    1600213.570   1602970.097  -6512314.509
10 0 59796  59502.000000  0    2413570.903   1872461.280  -6181203.395
10 0 59796  59622.000000  0    3189391.841   2095582.050  -5742156.713
10 0 59796  59742.000000  0    3913339.270   2269215.524  -5202756.792
10 0 59796  59862.000000  0    4571899.998   2391336.010  -4572342.530
10 0 59796  59982.000000  0    5152641.594   2461031.225  -3861858.548
10 0 59796  60102.000000  0    5644453.508   2478501.698  -3083673.990
10 0 59796  60222.000000  0    6037768.556   2445037.494  -2251374.965
10 0 59796  60342.000000  0    6324760.629   2362972.412  -1379530.070
10 0 59796  60462.000000  0    6499509.771   2235615.555   -483434.134
10 0 59796  60582.000000  0    6558132.884   2067162.030    421164.819
10 0 59796  60702.000000  0    6498872.236   1862583.834   1318349.829
10 0 59796  60822.000000  0    6322144.181   1627505.866   2192321.589
10 0 59796  60942.000000  0    6030544.254   1368067.861   3027686.926
10 0 59796  61062.000000  0    5628806.621   1090776.459   3809737.668
10 0 59796  61182.000000  0    5123720.479    802351.695   4524715.782
10 0 59796  61302.000000  0    4524006.392    509572.084   5160056.940
10 0 59796  61422.000000  0    3840156.726    219121.777   5704611.746
10 0 59796  61542.000000  0    3084241.340    -62557.379   6148838.429
10 0 59796  61662.000000  0    2269686.604   -329403.371   6484963.296
10 0 59796  61782.000000  0    1411032.566   -575860.308   6707111.162
10 0 59796  61902.000000  0     523669.917   -796991.559   6811403.590
10 0 59796  62022.000000  0    -376438.066   -988576.948   6796021.519
10 0 59796  62142.000000  0   -1273042.145  -1147192.706   6661234.069
10 0 59796  62262.000000  0   -2149899.194  -1270272.741   6409393.254
10 0 59796  62382.000000  0   -2991064.367  -1356149.566   6044895.103
10 0 59796  62502.000000  0   -3781181.237  -1404075.313   5574110.105
10 0 59796  62622.000000  0   -4505766.887  -1414223.643   5005278.755
10 0 59796  62742.000000  0   -5151483.857  -1387671.189   4348372.769
10 0 59796  62862.000000  0   -5706393.594  -1326358.230   3614923.854
10 0 59796  62982.000000  0   -6160185.128  -1233029.479   2817823.437
10 0 59796  63102.000000  0   -6504376.155  -1111156.922   1971097.693
10 0 59796  63222.000000  0   -6732482.896   -964846.199   1089657.736
10 0 59796  63342.000000  0   -6840149.230   -798728.131    189029.576
10 0 59796  63462.000000  0   -6825233.132   -617838.299   -714927.658
10 0 59796  63582.000000  0   -6687848.779   -427487.965  -1606310.254
10 0 59796  63702.000000  0   -6430362.180   -233129.494  -2469457.570
10 0 59796  63822.000000  0   -6057344.090    -40220.825  -3289233.111
10 0 59796  63942.000000  0   -5575478.285    145909.399  -4051295.462
10 0 59796  64062.000000  0   -4993428.042    320191.521  -4742349.222
10 0 59796  64182.000000  0   -4321667.116    477936.458  -5350372.816
10 0 59796  64302.000000  0   -3572279.591    614946.613  -5864820.082
10 0 59796  64422.000000  0   -2758733.024    727612.546  -6276792.796
10 0 59796  64542.000000  0   -1895631.686    812994.907  -6579182.021
10 0 59796  64662.000000  0    -998453.535    868890.529  -6766780.327
10 0 59796  64782.000000  0     -83275.044    893881.437  -6836360.834
10 0 59796  64902.000000  0     833509.567    887365.713  -6786725.808
10 0 59796  65022.000000  0    1735474.376    849570.088  -6618727.703
10 0 59796  65142.000000  0    2606450.640    781544.476  -6335256.561
10 0 59796  65262.000000  0    3430811.507    685138.396  -5941195.315
10 0 59796  65382.000000  0    4193748.894    562959.051  -5443343.419
10 0 59796  65502.000000  0    4881539.166    418311.605  -4850310.873
10 0 59796  65622.000000  0    5481794.850    255123.502  -4172381.018
10 0 59796  65742.000000  0    5983695.736     77852.831  -3421341.854
10 0 59796  65862.000000  0    6378194.042   -108617.028  -2610289.361
10 0 59796  65982.000000  0    6658190.821   -299094.635  -1753404.529
10 0 59796  66102.000000  0    6818676.621   -488206.922   -865705.468
10 0 59796  66222.000000  0    6856831.933   -670531.280     37218.683
10 0 59796  66342.000000  0    6772085.672   -840730.932    939487.126
10 0 59796  66462.000000  0    6566128.391   -993689.874   1825214.828
10 0 59796  66582.000000  0    6242880.753  -1124643.717   2678801.554
10 0 59796  66702.000000  0    5808414.507  -1229302.682   3485215.821
10 0 59796  66822.000000  0    5270832.051  -1303963.724   4230265.309
10 0 59796  66942.000000  0    4640106.568  -1345610.169   4900850.745
10 0 59796  67062.000000  0    3927886.789  -1351994.225   5485196.686
10 0 59796  67182.000000  0    3147272.649  -1321701.569   5973056.574
10 0 59796  67302.000000  0    2312565.651  -1254197.720   6355887.830
10 0 59796  67422.000000  0    1439001.458  -1149854.738   6626995.632
10 0 59796  67542.000000  0     542467.520  -1009957.806   6781644.830
10 0 59796  67662.000000  0    -360788.092   -836690.778   6817136.777
10 0 59796  67782.000000  0   -1254450.555   -633102.161   6732852.156
10 0 59796  67902.000000  0   -2122431.401   -403051.645   6530260.836
10 0 59796  68022.000000  0   -2949156.614   -151137.597   6212898.107
10 0 59796  68142.000000  0   -3719846.423    117393.123   5786308.122
10 0 59796  68262.000000  0   -4420782.938    396751.534   5257953.303
10 0 59796  68382.000000  0   -5039560.041    680727.404   4637089.703
10 0 59796  68502.000000  0   -5565311.096    962822.484   3934610.111
10 0 59796  68622.000000  0   -5988908.414   1236393.698   3162855.855
10 0 59796  68742.000000  0   -6303131.057   1494803.078   2335401.570
10 0 59796  68862.000000  0   -6502797.169   1731570.650   1466814.826
10 0 59796  68982.000000  0   -6584857.429   1940527.153    572395.035
99
